FENGYUN 1C DEB          
1 31812U 99025CHA 17346.44905525 -.00000068  00000-0 -15837-4 0  9999
2 31812  99.0349  59.1362 0071408  51.6020 309.1529 14.00231809537597
